{
  "type": "FeatureCollection",
  "features": [
    {
      "type": "Feature",
      "properties": {
        "norad_id": 67012,
        "name": "STARLINK-36175",
        "group": "last-30-days",
        "lat": 24.273354266327768,
        "lon": -44.63392382549611,
        "alt_km": 286.4742790103337,
        "timestamp": "2025-12-18T21:31:49.701979+00:00",
        "meta_object_name": "STARLINK-36175",
        "meta_object_id": "2025-293K",
        "meta_epoch": "2025-12-17T20:00:01.999872",
        "meta_mean_motion": 15.97689454,
        "meta_eccentricity": 0.00041397,
        "meta_inclination": 69.9934,
        "meta_ra_of_asc_node": 309.0186,
        "meta_arg_of_pericenter": 268.0112,
        "meta_mean_anomaly": 125.4057,
        "meta_ephemeris_type": 0,
        "meta_classification_type": "U",
        "meta_norad_cat_id": 67012,
        "meta_element_set_no": 999,
        "meta_rev_at_epoch": 238,
        "meta_bstar": -0.0021669699,
        "meta_mean_motion_dot": -0.00974747,
        "meta_mean_motion_ddot": 0.00030584746,
        "tle_line1": "1 67012U 25293K   25351.83335648 -.00974747  30585-3 -21670-2 0  9995",
        "tle_line2": "2 67012  69.9934 309.0186 0004139 268.0112 125.4057 15.97689454  2387"
      },
      "geometry": {
        "type": "Point",
        "coordinates": [
          -44.63392382549611,
          24.273354266327768
        ]
      }
    },
    {
      "type": "Feature",
      "properties": {
        "norad_id": 67013,
        "name": "STARLINK-35856",
        "group": "last-30-days",
        "lat": 26.404203923394956,
        "lon": -43.67154684110243,
        "alt_km": 285.99708428559006,
        "timestamp": "2025-12-18T21:31:49.701989+00:00",
        "meta_object_name": "STARLINK-35856",
        "meta_object_id": "2025-293L",
        "meta_epoch": "2025-12-17T20:00:01.999872",
        "meta_mean_motion": 15.97773827,
        "meta_eccentricity": 0.00040548,
        "meta_inclination": 69.9932,
        "meta_ra_of_asc_node": 309.0161,
        "meta_arg_of_pericenter": 266.1783,
        "meta_mean_anomaly": 129.1993,
        "meta_ephemeris_type": 0,
        "meta_classification_type": "U",
        "meta_norad_cat_id": 67013,
        "meta_element_set_no": 999,
        "meta_rev_at_epoch": 238,
        "meta_bstar": -0.0021459581,
        "meta_mean_motion_dot": -0.00969807,
        "meta_mean_motion_ddot": 0.00030326859,
        "tle_line1": "1 67013U 25293L   25351.83335648 -.00969807  30327-3 -21460-2 0  9998",
        "tle_line2": "2 67013  69.9932 309.0161 0004054 266.1783 129.1993 15.97773827  2386"
      },
      "geometry": {
        "type": "Point",
        "coordinates": [
          -43.67154684110243,
          26.404203923394956
        ]
      }
    },
    {
      "type": "Feature",
      "properties": {
        "norad_id": 67014,
        "name": "STARLINK-36207",
        "group": "last-30-days",
        "lat": 28.341080476771364,
        "lon": -42.76277059913869,
        "alt_km": 285.56661515035375,
        "timestamp": "2025-12-18T21:31:49.702002+00:00",
        "meta_object_name": "STARLINK-36207",
        "meta_object_id": "2025-293M",
        "meta_epoch": "2025-12-17T20:00:01.999872",
        "meta_mean_motion": 15.9786493,
        "meta_eccentricity": 0.000413,
        "meta_inclination": 69.9936,
        "meta_ra_of_asc_node": 309.0139,
        "meta_arg_of_pericenter": 268.0015,
        "meta_mean_anomaly": 129.2032,
        "meta_ephemeris_type": 0,
        "meta_classification_type": "U",
        "meta_norad_cat_id": 67014,
        "meta_element_set_no": 999,
        "meta_rev_at_epoch": 238,
        "meta_bstar": -0.002181423,
        "meta_mean_motion_dot": -0.00990673,
        "meta_mean_motion_ddot": 0.00031573426,
        "tle_line1": "1 67014U 25293M   25351.83335648 -.00990673  31573-3 -21814-2 0  9991",
        "tle_line2": "2 67014  69.9936 309.0139 0004130 268.0015 129.2032 15.97864930  2381"
      },
      "geometry": {
        "type": "Point",
        "coordinates": [
          -42.76277059913869,
          28.341080476771364
        ]
      }
    },
    {
      "type": "Feature",
      "properties": {
        "norad_id": 67015,
        "name": "STARLINK-36093",
        "group": "last-30-days",
        "lat": 32.17228922668508,
        "lon": -40.85115778374876,
        "alt_km": 284.8415647689435,
        "timestamp": "2025-12-18T21:31:49.702014+00:00",
        "meta_object_name": "STARLINK-36093",
        "meta_object_id": "2025-293N",
        "meta_epoch": "2025-12-17T20:00:01.999872",
        "meta_mean_motion": 15.98028769,
        "meta_eccentricity": 0.00041429,
        "meta_inclination": 69.9934,
        "meta_ra_of_asc_node": 309.0096,
        "meta_arg_of_pericenter": 265.7927,
        "meta_mean_anomaly": 135.0426,
        "meta_ephemeris_type": 0,
        "meta_classification_type": "U",
        "meta_norad_cat_id": 67015,
        "meta_element_set_no": 999,
        "meta_rev_at_epoch": 238,
        "meta_bstar": -0.0022114754,
        "meta_mean_motion_dot": -0.01013288,
        "meta_mean_motion_ddot": 0.00032974933,
        "tle_line1": "1 67015U 25293N   25351.83335648 -.01013288  32975-3 -22115-2 0  9993",
        "tle_line2": "2 67015  69.9934 309.0096 0004142 265.7927 135.0426 15.98028769  2386"
      },
      "geometry": {
        "type": "Point",
        "coordinates": [
          -40.85115778374876,
          32.17228922668508
        ]
      }
    },
    {
      "type": "Feature",
      "properties": {
        "norad_id": 67016,
        "name": "STARLINK-36120",
        "group": "last-30-days",
        "lat": 30.12369793415098,
        "lon": -41.893519597901125,
        "alt_km": 285.2819354849671,
        "timestamp": "2025-12-18T21:31:49.702026+00:00",
        "meta_object_name": "STARLINK-36120",
        "meta_object_id": "2025-293P",
        "meta_epoch": "2025-12-17T20:00:01.999872",
        "meta_mean_motion": 15.97945099,
        "meta_eccentricity": 0.00041175,
        "meta_inclination": 69.9934,
        "meta_ra_of_asc_node": 309.0119,
        "meta_arg_of_pericenter": 266.5433,
        "meta_mean_anomaly": 132.3706,
        "meta_ephemeris_type": 0,
        "meta_classification_type": "U",
        "meta_norad_cat_id": 67016,
        "meta_element_set_no": 999,
        "meta_rev_at_epoch": 238,
        "meta_bstar": -0.0022172473,
        "meta_mean_motion_dot": -0.01011241,
        "meta_mean_motion_ddot": 0.00032822323,
        "tle_line1": "1 67016U 25293P   25351.83335648 -.01011241  32822-3 -22172-2 0  9995",
        "tle_line2": "2 67016  69.9934 309.0119 0004117 266.5433 132.3706 15.97945099  2380"
      },
      "geometry": {
        "type": "Point",
        "coordinates": [
          -41.893519597901125,
          30.12369793415098
        ]
      }
    },
    {
      "type": "Feature",
      "properties": {
        "norad_id": 67017,
        "name": "STARLINK-35498",
        "group": "last-30-days",
        "lat": 34.058160990924705,
        "lon": -39.84473859657095,
        "alt_km": 284.3896308116273,
        "timestamp": "2025-12-18T21:31:49.702036+00:00",
        "meta_object_name": "STARLINK-35498",
        "meta_object_id": "2025-293Q",
        "meta_epoch": "2025-12-17T20:00:01.999872",
        "meta_mean_motion": 15.98107102,
        "meta_eccentricity": 0.00040069,
        "meta_inclination": 69.9931,
        "meta_ra_of_asc_node": 309.0075,
        "meta_arg_of_pericenter": 264.5836,
        "meta_mean_anomaly": 138.0394,
        "meta_ephemeris_type": 0,
        "meta_classification_type": "U",
        "meta_norad_cat_id": 67017,
        "meta_element_set_no": 999,
        "meta_rev_at_epoch": 227,
        "meta_bstar": -0.0022140094,
        "meta_mean_motion_dot": -0.01018757,
        "meta_mean_motion_ddot": 0.00033332358,
        "tle_line1": "1 67017U 25293Q   25351.83335648 -.01018757  33332-3 -22140-2 0  9997",
        "tle_line2": "2 67017  69.9931 309.0075 0004006 264.5836 138.0394 15.98107102  2271"
      },
      "geometry": {
        "type": "Point",
        "coordinates": [
          -39.84473859657095,
          34.058160990924705
        ]
      }
    },
    {
      "type": "Feature",
      "properties": {
        "norad_id": 67018,
        "name": "STARLINK-36106",
        "group": "last-30-days",
        "lat": 35.90431834577334,
        "lon": -38.810657610948475,
        "alt_km": 283.78899771967735,
        "timestamp": "2025-12-18T21:31:49.702049+00:00",
        "meta_object_name": "STARLINK-36106",
        "meta_object_id": "2025-293R",
        "meta_epoch": "2025-12-17T20:00:01.999872",
        "meta_mean_motion": 15.98203813,
        "meta_eccentricity": 0.00037371,
        "meta_inclination": 69.993,
        "meta_ra_of_asc_node": 309.0052,
        "meta_arg_of_pericenter": 268.9409,
        "meta_mean_anomaly": 135.4803,
        "meta_ephemeris_type": 0,
        "meta_classification_type": "U",
        "meta_norad_cat_id": 67018,
        "meta_element_set_no": 999,
        "meta_rev_at_epoch": 238,
        "meta_bstar": -0.0022812916,
        "meta_mean_motion_dot": -0.01054924,
        "meta_mean_motion_ddot": 0.00035585483,
        "tle_line1": "1 67018U 25293R   25351.83335648 -.01054924  35585-3 -22813-2 0  9993",
        "tle_line2": "2 67018  69.9930 309.0052 0003737 268.9409 135.4803 15.98203813  2384"
      },
      "geometry": {
        "type": "Point",
        "coordinates": [
          -38.810657610948475,
          35.90431834577334
        ]
      }
    }
  ]
}